{
  "type": "FeatureCollection",
  "features": [
    {
      "type": "Feature",
      "properties": {
        "norad_id": 38867,
        "name": "INTELSAT 23 (IS-23)",
        "group": "intelsat",
        "lat": -0.012658747038311161,
        "lon": -99.64823584485228,
        "alt_km": 35780.30165337734,
        "timestamp": "2025-12-08T15:42:49.446366+00:00",
        "meta_object_name": "INTELSAT 23 (IS-23)",
        "meta_object_id": "2012-057A",
        "meta_epoch": "2025-12-08T04:02:55.597920",
        "meta_mean_motion": 1.00271689,
        "meta_eccentricity": 0.00014691,
        "meta_inclination": 0.0491,
        "meta_ra_of_asc_node": 94.9211,
        "meta_arg_of_pericenter": 184.9137,
        "meta_mean_anomaly": 165.0739,
        "meta_ephemeris_type": 0,
        "meta_classification_type": "U",
        "meta_norad_cat_id": 38867,
        "meta_element_set_no": 999,
        "meta_rev_at_epoch": 4804,
        "meta_bstar": 0,
        "meta_mean_motion_dot": -2.82e-06,
        "meta_mean_motion_ddot": 0,
        "tle_line1": "1 38867U 12057A   25342.16869905 -.00000282  00000+0  00000+0 0  9998",
        "tle_line2": "2 38867   0.0491  94.9211 0001469 184.9137 165.0739  1.00271689 48048"
      },
      "geometry": {
        "type": "Point",
        "coordinates": [
          -99.64823584485228,
          -0.012658747038311161
        ]
      }
    },
    {
      "type": "Feature",
      "properties": {
        "norad_id": 39360,
        "name": "FM-6",
        "group": "intelsat",
        "lat": -0.002379152514213059,
        "lon": -162.77049117778193,
        "alt_km": 35775.1185937772,
        "timestamp": "2025-12-08T15:42:49.446393+00:00",
        "meta_object_name": "FM-6",
        "meta_object_id": "2013-058A",
        "meta_epoch": "2025-12-08T01:04:02.112960",
        "meta_mean_motion": 1.00270486,
        "meta_eccentricity": 0.00029578,
        "meta_inclination": 0.0029,
        "meta_ra_of_asc_node": 62.3339,
        "meta_arg_of_pericenter": 110.4805,
        "meta_mean_anomaly": 164.1097,
        "meta_ephemeris_type": 0,
        "meta_classification_type": "U",
        "meta_norad_cat_id": 39360,
        "meta_element_set_no": 999,
        "meta_rev_at_epoch": 4415,
        "meta_bstar": 0,
        "meta_mean_motion_dot": -1.4e-07,
        "meta_mean_motion_ddot": 0,
        "tle_line1": "1 39360U 13058A   25342.04446890 -.00000014  00000+0  00000+0 0  9993",
        "tle_line2": "2 39360   0.0029  62.3339 0002957 110.4805 164.1097  1.00270486 44152"
      },
      "geometry": {
        "type": "Point",
        "coordinates": [
          -162.77049117778193,
          -0.002379152514213059
        ]
      }
    },
    {
      "type": "Feature",
      "properties": {
        "norad_id": 40271,
        "name": "INTELSAT 30 (IS-30)",
        "group": "intelsat",
        "lat": -0.01919244251200527,
        "lon": -141.6881490269659,
        "alt_km": 35790.302404196904,
        "timestamp": "2025-12-08T15:42:49.446406+00:00",
        "meta_object_name": "INTELSAT 30 (IS-30)",
        "meta_object_id": "2014-062A",
        "meta_epoch": "2025-12-08T06:04:13.152864",
        "meta_mean_motion": 1.00270152,
        "meta_eccentricity": 0.00012295,
        "meta_inclination": 0.0139,
        "meta_ra_of_asc_node": 16.3948,
        "meta_arg_of_pericenter": 65.9608,
        "meta_mean_anomaly": 350.9061,
        "meta_ephemeris_type": 0,
        "meta_classification_type": "U",
        "meta_norad_cat_id": 40271,
        "meta_element_set_no": 999,
        "meta_rev_at_epoch": 486,
        "meta_bstar": 0,
        "meta_mean_motion_dot": -1.48e-06,
        "meta_mean_motion_ddot": 0,
        "tle_line1": "1 40271U 14062A   25342.25293001 -.00000148  00000+0  00000+0 0  9997",
        "tle_line2": "2 40271   0.0139  16.3948 0001229  65.9608 350.9061  1.00270152  4868"
      },
      "geometry": {
        "type": "Point",
        "coordinates": [
          -141.6881490269659,
          -0.01919244251200527
        ]
      }
    },
    {
      "type": "Feature",
      "properties": {
        "norad_id": 40333,
        "name": "DIRECTV 14",
        "group": "intelsat",
        "lat": -0.03327658510830984,
        "lon": -145.86011882920747,
        "alt_km": 35785.04594296566,
        "timestamp": "2025-12-08T15:42:49.446418+00:00",
        "meta_object_name": "DIRECTV 14",
        "meta_object_id": "2014-078B",
        "meta_epoch": "2025-12-08T06:01:18.292224",
        "meta_mean_motion": 1.00270581,
        "meta_eccentricity": 3.303e-05,
        "meta_inclination": 0.018,
        "meta_ra_of_asc_node": 335.5374,
        "meta_arg_of_pericenter": 241.9777,
        "meta_mean_anomaly": 210.8536,
        "meta_ephemeris_type": 0,
        "meta_classification_type": "U",
        "meta_norad_cat_id": 40333,
        "meta_element_set_no": 999,
        "meta_rev_at_epoch": 4012,
        "meta_bstar": 0,
        "meta_mean_motion_dot": -1.23e-06,
        "meta_mean_motion_ddot": 0,
        "tle_line1": "1 40333U 14078B   25342.25090616 -.00000123  00000+0  00000+0 0  9993",
        "tle_line2": "2 40333   0.0180 335.5374 0000330 241.9777 210.8536  1.00270581 40123"
      },
      "geometry": {
        "type": "Point",
        "coordinates": [
          -145.86011882920747,
          -0.03327658510830984
        ]
      }
    },
    {
      "type": "Feature",
      "properties": {
        "norad_id": 40663,
        "name": "DIRECTV 15",
        "group": "intelsat",
        "lat": 0.009084508216928676,
        "lon": -149.5013409631994,
        "alt_km": 35784.964914819386,
        "timestamp": "2025-12-08T15:42:49.446430+00:00",
        "meta_object_name": "DIRECTV 15",
        "meta_object_id": "2015-026A",
        "meta_epoch": "2025-12-08T00:50:22.714368",
        "meta_mean_motion": 1.00270696,
        "meta_eccentricity": 3.891e-05,
        "meta_inclination": 0.0373,
        "meta_ra_of_asc_node": 79.3662,
        "meta_arg_of_pericenter": 160.7225,
        "meta_mean_anomaly": 106.6968,
        "meta_ephemeris_type": 0,
        "meta_classification_type": "U",
        "meta_norad_cat_id": 40663,
        "meta_element_set_no": 999,
        "meta_rev_at_epoch": 3854,
        "meta_bstar": 0,
        "meta_mean_motion_dot": -1e-06,
        "meta_mean_motion_ddot": 0,
        "tle_line1": "1 40663U 15026A   25342.03498512 -.00000100  00000+0  00000+0 0  9991",
        "tle_line2": "2 40663   0.0373  79.3662 0000389 160.7225 106.6968  1.00270696 38547"
      },
      "geometry": {
        "type": "Point",
        "coordinates": [
          -149.5013409631994,
          0.009084508216928676
        ]
      }
    },
    {
      "type": "Feature",
      "properties": {
        "norad_id": 40664,
        "name": "SKY MEXICO-1",
        "group": "intelsat",
        "lat": -0.015732692117984743,
        "lon": -125.42538420507566,
        "alt_km": 35777.06025408853,
        "timestamp": "2025-12-08T15:42:49.446441+00:00",
        "meta_object_name": "SKY MEXICO-1",
        "meta_object_id": "2015-026B",
        "meta_epoch": "2025-12-08T06:12:57.416832",
        "meta_mean_motion": 1.00270947,
        "meta_eccentricity": 0.00027801,
        "meta_inclination": 0.0214,
        "meta_ra_of_asc_node": 52.263,
        "meta_arg_of_pericenter": 220.2774,
        "meta_mean_anomaly": 179.2028,
        "meta_ephemeris_type": 0,
        "meta_classification_type": "U",
        "meta_norad_cat_id": 40664,
        "meta_element_set_no": 999,
        "meta_rev_at_epoch": 3854,
        "meta_bstar": 0,
        "meta_mean_motion_dot": -2.32e-06,
        "meta_mean_motion_ddot": 0,
        "tle_line1": "1 40664U 15026B   25342.25899788 -.00000232  00000+0  00000+0 0  9992",
        "tle_line2": "2 40664   0.0214  52.2630 0002780 220.2774 179.2028  1.00270947 38547"
      },
      "geometry": {
        "type": "Point",
        "coordinates": [
          -125.42538420507566,
          -0.015732692117984743
        ]
      }
    },
    {
      "type": "Feature",
      "properties": {
        "norad_id": 40874,
        "name": "INTELSAT 34 (IS-34)",
        "group": "intelsat",
        "lat": -0.027081801207845087,
        "lon": -102.1263540719406,
        "alt_km": 35785.50119265824,
        "timestamp": "2025-12-08T15:42:49.446453+00:00",
        "meta_object_name": "INTELSAT 34 (IS-34)",
        "meta_object_id": "2015-039A",
        "meta_epoch": "2025-12-08T06:29:30.939072",
        "meta_mean_motion": 1.00271964,
        "meta_eccentricity": 6.283e-05,
        "meta_inclination": 0.0123,
        "meta_ra_of_asc_node": 307.4102,
        "meta_arg_of_pericenter": 233.0465,
        "meta_mean_anomaly": 298.7086,
        "meta_ephemeris_type": 0,
        "meta_classification_type": "U",
        "meta_norad_cat_id": 40874,
        "meta_element_set_no": 999,
        "meta_rev_at_epoch": 3771,
        "meta_bstar": 0,
        "meta_mean_motion_dot": -2.83e-06,
        "meta_mean_motion_ddot": 0,
        "tle_line1": "1 40874U 15039A   25342.27049698 -.00000283  00000+0  00000+0 0  9994",
        "tle_line2": "2 40874   0.0123 307.4102 0000628 233.0465 298.7086  1.00271964 37715"
      },
      "geometry": {
        "type": "Point",
        "coordinates": [
          -102.1263540719406,
          -0.027081801207845087
        ]
      }
    }
  ]
}